NORAD_CAT_ID,OBJECT_NAME,OBJECT_TYPE,EPOCH,MEAN_MOTION,ECCENTRICITY,INCLINATION,RA_OF_ASC_NODE,ARG_OF_PERICENTER,MEAN_ANOMALY,BSTAR,MEAN_MOTION_DOT,MEAN_MOTION_DDOT,TLE_LINE0,TLE_LINE1,TLE_LINE2,SEMIMAJOR_AXIS,PERIOD,APOGEE,PERIGEE,DECAYED
53622.0,STARLINK-4568,PAYLOAD,2024-01-14 16:45:47,15.0885916,0.0001048,53.2173,157.6878,122.4531,237.6563,0.0002964,4.435e-05,0.0,0 STARLINK-4568,1 53622U 22104AL  24014.69847044  .00004435  00000-0  29640-3 0  9990,2 53622  53.2173 157.6878 0001048 122.4531 237.6563 15.08859160 76563,6917.822,95.436,540.412,538.962,0.0
53622.0,STARLINK-4568,PAYLOAD,2024-01-15 13:25:50,15.08843566,0.000168,53.2175,153.825,64.4527,295.6639,5.2489e-05,5.47e-06,0.0,0 STARLINK-4568,1 53622U 22104AL  24015.55961099  .00000547  00000-0  52489-4 0  9991,2 53622  53.2175 153.8250 0001680  64.4527 295.6639 15.08843566 77370,6917.869,95.437,540.897,538.572,0.0
53622.0,STARLINK-4568,PAYLOAD,2024-01-15 16:36:36,15.08847304,0.0001688,53.2182,153.2303,70.0177,290.0997,8.5087e-05,1.067e-05,0.0,0 STARLINK-4568,1 53622U 22104AL  24015.69208750  .00001067  00000-0  85087-4 0  9992,2 53622  53.2182 153.2303 0001688  70.0177 290.0997 15.08847304 76710,6917.858,95.437,540.891,538.555,0.0
53622.0,STARLINK-4568,PAYLOAD,2024-01-16 10:05:51,15.08838354,0.0001425,53.218,149.9589,75.0595,285.0555,3.828e-05,3.21e-06,0.0,0 STARLINK-4568,1 53622U 22104AL  24016.42073475  .00000321  00000-0  38280-4 0  9993,2 53622  53.2180 149.9589 0001425  75.0595 285.0555 15.08838354 76825,6917.885,95.438,540.736,538.765,0.0
53622.0,STARLINK-4568,PAYLOAD,2024-01-16 14:52:00,15.08838767,0.0001475,53.2175,149.0665,78.4513,281.6644,4.4144e-05,4.15e-06,0.0,0 STARLINK-4568,1 53622U 22104AL  24016.61945466  .00000415  00000-0  44144-4 0  9992,2 53622  53.2175 149.0665 0001475  78.4513 281.6644 15.08838767 77535,6917.884,95.438,540.77,538.729,0.0
53622.0,STARLINK-4568,PAYLOAD,2024-01-16 16:27:24,15.08817483,0.0001468,53.2171,148.7691,49.5182,310.5938,0.00041703,6.351e-05,0.0,0 STARLINK-4568,1 53622U 22104AL  24016.68569965  .00006351  00000-0  41703-3 0  9997,2 53622  53.2171 148.7691 0001468  49.5182 310.5938 15.08817483 76864,6917.949,95.439,540.83,538.799,0.0
53622.0,STARLINK-4568,PAYLOAD,2024-01-17 14:42:48,15.08843055,0.0002293,53.2191,144.6075,54.0045,306.1159,7.4389e-06,-1.7e-06,0.0,0 STARLINK-4568,1 53622U 22104AL  24017.61305713 -.00000170  00000-0  74389-5 0  9992,2 53622  53.2191 144.6075 0002293  54.0045 306.1159 15.08843055 77684,6917.871,95.437,541.322,538.15,0.0
53622.0,STARLINK-4568,PAYLOAD,2024-01-18 14:33:35,15.08837911,0.000228,53.2187,140.1489,53.7134,306.4069,0.00017622,2.517e-05,0.0,0 STARLINK-4568,1 53622U 22104AL  24018.60665786  .00002517  00000-0  17622-3 0  9992,2 53622  53.2187 140.1489 0002280  53.7134 306.4069 15.08837911 77834,6917.887,95.438,541.329,538.174,0.0
53622.0,STARLINK-4568,PAYLOAD,2024-01-19 11:13:35,15.08836088,0.0001487,53.2164,136.2861,104.2979,255.8179,0.00022901,3.358e-05,0.0,0 STARLINK-4568,1 53622U 22104AL  24019.46777185  .00003358  00000-0  22901-3 0  9994,2 53622  53.2164 136.2861 0001487 104.2979 255.8179 15.08836088 77288,6917.892,95.438,540.786,538.729,0.0
53622.0,STARLINK-4568,PAYLOAD,2024-01-19 12:48:58,15.08851526,0.00014,53.2168,135.9847,92.1767,267.9385,8.8811e-05,1.126e-05,0.0,0 STARLINK-4568,1 53622U 22104AL  24019.53400676  .00001126  00000-0  88811-4 0  9994,2 53622  53.2168 135.9847 0001400  92.1767 267.9385 15.08851526 77970,6917.845,95.437,540.679,538.742,0.0
53622.0,STARLINK-4568,PAYLOAD,2024-01-20 11:04:23,15.08831824,0.0001533,53.2168,131.8137,113.8957,246.2196,-2.5382e-06,-3.28e-06,0.0,0 STARLINK-4568,1 53622U 22104AL  24020.46138111 -.00000328  00000-0 -25382-5 0  9990,2 53622  53.2168 131.8137 0001533 113.8957 246.2196 15.08831824 77436,6917.905,95.438,540.831,538.71,0.0
53622.0,STARLINK-4568,PAYLOAD,2024-01-20 14:15:09,15.08832997,0.0001321,53.2167,131.2219,112.2276,247.8856,9.5034e-06,-1.37e-06,0.0,0 STARLINK-4568,1 53622U 22104AL  24020.59386083 -.00000137  00000-0  95034-5 0  9995,2 53622  53.2167 131.2219 0001321 112.2276 247.8856 15.08832997 78132,6917.902,95.438,540.681,538.853,0.0
53622.0,STARLINK-4568,PAYLOAD,2024-01-21 06:09:00,15.08840666,0.0001244,53.2169,128.2477,110.4473,249.6653,-4.1908e-05,-9.55e-06,0.0,0 STARLINK-4568,1 53622U 22104AL  24021.25626080 -.00000955  00000-0 -41908-4 0  9992,2 53622  53.2169 128.2477 0001244 110.4473 249.6653 15.08840666 78237,6917.878,95.438,540.604,538.883,0.0
53622.0,STARLINK-4568,PAYLOAD,2024-01-21 12:30:32,15.08849044,0.0001055,53.2162,127.0616,85.4707,274.6406,5.5025e-05,5.88e-06,0.0,0 STARLINK-4568,1 53622U 22104AL  24021.52121322  .00000588  00000-0  55025-4 0  9996,2 53622  53.2162 127.0616 0001055  85.4707 274.6406 15.08849044 77594,6917.853,95.437,540.448,538.988,0.0
53622.0,STARLINK-4568,PAYLOAD,2024-01-22 10:45:57,15.08832508,0.0001007,53.2165,122.898,88.2139,271.8969,0.00016536,2.344e-05,0.0,0 STARLINK-4568,1 53622U 22104AL  24022.44858201  .00002344  00000-0  16536-3 0  9996,2 53622  53.2165 122.8980 0001007  88.2139 271.8969 15.08832508 77737,6917.903,95.438,540.465,539.072,0.0
53622.0,STARLINK-4568,PAYLOAD,2024-01-22 13:56:43,15.08836093,0.0001005,53.2168,122.3017,77.4107,282.6997,0.00016818,2.39e-05,0.0,0 STARLINK-4568,1 53622U 22104AL  24022.58105991  .00002390  00000-0  16818-3 0  9996,2 53622  53.2168 122.3017 0001005  77.4107 282.6997 15.08836093 78431,6917.892,95.438,540.453,539.062,0.0
53622.0,STARLINK-4568,PAYLOAD,2024-01-23 12:12:07,15.08847474,0.0001597,53.2174,118.1401,44.9069,315.2052,3.3963e-05,2.53e-06,0.0,0 STARLINK-4568,1 53622U 22104AL  24023.50841757  .00000253  00000-0  33963-4 0  9993,2 53622  53.2174 118.1401 0001597  44.9069 315.2052 15.08847474 77899,6917.858,95.437,540.827,538.618,0.0
53622.0,STARLINK-4568,PAYLOAD,2024-01-23 13:47:30,15.0884933,0.0001831,53.2187,117.8453,41.9343,318.1789,8.7804e-05,1.11e-05,0.0,0 STARLINK-4568,1 53622U 22104AL  24023.57465741  .00001110  00000-0  87804-4 0  9991,2 53622  53.2187 117.8453 0001831  41.9343 318.1789 15.08849330 78588,6917.852,95.437,540.984,538.45,0.0
53622.0,STARLINK-4568,PAYLOAD,2024-01-24 12:02:55,15.08838167,0.0001417,53.2188,113.6769,58.6426,301.4705,3.1043e-05,2.06e-06,0.0,0 STARLINK-4568,1 53622U 22104AL  24024.50202584  .00000206  00000-0  31043-4 0  9998,2 53622  53.2188 113.6769 0001417  58.6426 301.4705 15.08838167 78040,6917.886,95.438,540.731,538.771,0.0
53622.0,STARLINK-4568,PAYLOAD,2024-01-24 13:38:18,15.08839084,0.0001482,53.2175,113.3811,60.3176,299.7964,5.0468e-05,5.15e-06,0.0,0 STARLINK-4568,1 53622U 22104AL  24024.56826505  .00000515  00000-0  50468-4 0  9994,2 53622  53.2175 113.3811 0001482  60.3176 299.7964 15.08839084 78736,6917.883,95.438,540.773,538.723,0.0
53622.0,STARLINK-4568,PAYLOAD,2024-01-25 11:53:42,15.08844376,0.000178,53.2183,109.2224,60.5379,299.5791,6.801e-07,-2.77e-06,0.0,0 STARLINK-4568,1 53622U 22104AL  24025.49562655 -.00000277  00000-0  68010-6 0  9990,2 53622  53.2183 109.2224 0001780  60.5379 299.5791 15.08844376 78876,6917.867,95.437,540.963,538.501,0.0
53622.0,STARLINK-4568,PAYLOAD,2024-01-26 11:44:28,15.08851713,0.0001531,53.2177,104.7601,73.9427,286.1734,0.00016703,2.372e-05,0.0,0 STARLINK-4568,1 53622U 22104AL  24026.48921645  .00002372  00000-0  16703-3 0  9994,2 53622  53.2177 104.7601 0001531  73.9427 286.1734 15.08851713 78348,6917.845,95.437,540.769,538.65,0.0
53622.0,STARLINK-4568,PAYLOAD,2024-01-27 11:35:16,15.08841543,0.0001554,53.2184,100.298,92.671,267.446,5.5113e-05,5.89e-06,0.0,0 STARLINK-4568,1 53622U 22104AL  24027.48282539  .00000589  00000-0  55113-4 0  9994,2 53622  53.2184 100.2980 0001554  92.6710 267.4460 15.08841543 78499,6917.876,95.437,540.816,538.666,0.0
53622.0,STARLINK-4568,PAYLOAD,2024-01-28 05:04:31,15.0881792,0.0001654,53.2182,97.0257,94.4309,265.6872,0.00023605,3.468e-05,0.0,0 STARLINK-4568,1 53622U 22104AL  24028.21147243  .00003468  00000-0  23605-3 0  9997,2 53622  53.2182  97.0257 0001654  94.4309 265.6872 15.08817920 78604,6917.948,95.439,540.957,538.669,0.0
53622.0,STARLINK-4568,PAYLOAD,2024-01-28 11:26:03,15.0884213,0.0001638,53.2178,95.8376,102.1509,257.9666,-3.1705e-05,-7.93e-06,0.0,0 STARLINK-4568,1 53622U 22104AL  24028.47642700 -.00000793  00000-0 -31705-4 0  9994,2 53622  53.2178  95.8376 0001638 102.1509 257.9666 15.08842130 78648,6917.874,95.437,540.872,538.606,0.0
53622.0,STARLINK-4568,PAYLOAD,2024-01-29 12:52:13,15.08842255,0.0001516,53.2179,91.0759,92.5032,267.6134,0.00019545,2.824e-05,0.0,0 STARLINK-4568,1 53622U 22104AL  24029.53626243  .00002824  00000-0  19545-3 0  9998,2 53622  53.2179  91.0759 0001516  92.5032 267.6134 15.08842255 78804,6917.873,95.437,540.787,538.69,0.0
53622.0,STARLINK-4568,PAYLOAD,2024-01-30 11:07:37,15.08836022,0.0001588,53.218,86.9146,83.0574,277.0599,6.6663e-05,7.73e-06,0.0,0 STARLINK-4568,1 53622U 22104AL  24030.46363374  .00000773  00000-0  66663-4 0  9990,2 53622  53.2180  86.9146 0001588  83.0574 277.0599 15.08836022 78944,6917.893,95.438,540.856,538.659,0.0
53622.0,STARLINK-4568,PAYLOAD,2024-01-30 12:43:01,15.08836564,0.0001565,53.2179,86.6181,86.0366,274.0805,7.1084e-05,8.43e-06,0.0,0 STARLINK-4568,1 53622U 22104AL  24030.52987342  .00000843  00000-0  71084-4 0  9995,2 53622  53.2179  86.6181 0001565  86.0366 274.0805 15.08836564 79630,6917.891,95.438,540.839,538.673,0.0
53622.0,STARLINK-4568,PAYLOAD,2024-01-31 10:58:24,15.08848864,0.0001562,53.2179,82.4558,81.1415,278.9754,5.6593e-05,6.13e-06,0.0,0 STARLINK-4568,1 53622U 22104AL  24031.45722631  .00000613  00000-0  56593-4 0  9999,2 53622  53.2179  82.4558 0001562  81.1415 278.9754 15.08848864 79092,6917.853,95.437,540.799,538.638,0.0
53622.0,STARLINK-4568,PAYLOAD,2024-02-01 09:13:49,15.08836951,0.0001716,53.2181,78.2951,75.7904,284.3279,5.6427e-05,6.1e-06,0.0,0 STARLINK-4568,1 53622U 22104AL  24032.38459514  .00000610  00000-0  56427-4 0  9992,2 53622  53.2181  78.2951 0001716  75.7904 284.3279 15.08836951 79231,6917.89,95.438,540.942,538.568,0.0
